OBJECT_NAME,OBJECT_ID,EPOCH,MEAN_MOTION,ECCENTRICITY,INCLINATION,RA_OF_ASC_NODE,ARG_OF_PERICENTER,MEAN_ANOMALY,EPHEMERIS_TYPE,CLASSIFICATION_TYPE,NORAD_CAT_ID,ELEMENT_SET_NO,REV_AT_EPOCH,BSTAR,MEAN_MOTION_DOT,MEAN_MOTION_DDOT
STARLINK-37665,2026-117A,2026-06-26T05:17:17.617920,15.75543124,.00073681,53.1570,198.3240,142.0725,218.0815,0,U,69238,999,440,.51356222E-3,.80006E-3,0
STARLINK-37558,2026-117B,2026-06-26T06:44:26.198592,15.78823459,.00090683,53.1567,197.9896,212.4762,147.5703,0,U,69239,999,441,.17403376E-2,.324897E-2,0
STARLINK-37680,2026-117C,2026-06-25T12:27:41.142816,15.80716632,.000056,53.1563,201.7705,116.3821,243.7259,0,U,69240,999,429,-.22294E-2,-.417075E-2,0
STARLINK-37742,2026-117D,2026-06-25T13:56:43.309248,15.81047745,.00028579,53.1563,201.4448,113.6877,246.4446,0,U,69241,999,430,.233283E-2,.49079E-2,0
STARLINK-37718,2026-117E,2026-06-25T13:54:34.979328,15.80790095,.00006802,53.1559,201.4323,280.4127,79.6819,0,U,69242,999,430,.42321883E-3,.83319E-3,0
STARLINK-37735,2026-117F,2026-06-26T06:45:05.558112,15.72484266,.00017094,53.1583,197.9909,1.3706,358.7317,0,U,69243,999,441,-.64673192E-2,-.801433E-2,0
STARLINK-37757,2026-117G,2026-06-26T06:00:02.000160,15.76195833,.00012669,53.1592,198.0901,89.7489,120.8742,0,U,69244,999,563,-.19019067E-1,-.2644994E-1,0
STARLINK-37767,2026-117H,2026-06-26T06:00:02.000160,15.76790537,.00008568,53.1590,198.0334,83.2625,154.6648,0,U,69245,999,563,-.10603268E-1,-.1527881E-1,0
STARLINK-35759,2026-117J,2026-06-26T06:00:02.000160,15.76846586,.00010595,53.1589,198.0015,95.0592,157.9420,0,U,69246,999,568,-.18151241E-1,-.2544024E-1,0
STARLINK-37238,2026-117K,2026-06-26T06:00:02.000160,15.64400096,.00012084,53.1591,198.1483,72.5109,107.9410,0,U,69247,999,563,-.30283266E-1,-.2568921E-1,0
STARLINK-37412,2026-117L,2026-06-25T09:00:22.756896,15.80853152,.0002809,53.1570,202.2846,20.2449,339.8684,0,U,69248,999,427,.13416E-2,.272369E-2,0
STARLINK-37398,2026-117M,2026-06-25T13:51:34.916544,15.73684807,.00009082,53.1576,201.4173,25.7870,334.3194,0,U,69249,999,430,-.75788081E-2,-.984551E-2,0
STARLINK-37499,2026-117N,2026-06-26T06:00:02.000160,15.70281433,.00009062,53.1592,197.9909,75.2306,182.0775,0,U,69250,999,570,-.12684329E-1,-.1394577E-1,0
STARLINK-37489,2026-117P,2026-06-26T06:00:02.000160,15.68764343,.00011805,53.1593,198.0140,90.1999,156.2445,0,U,69251,999,570,-.2551721E-1,-.2584964E-1,0
STARLINK-37434,2026-117Q,2026-06-26T06:00:02.000160,15.57071334,.00011746,53.1593,198.2568,64.0800,62.5662,0,U,69252,999,564,-.38856275E-1,-.2490013E-1,0
STARLINK-37368,2026-117R,2026-06-26T06:00:02.000160,15.76684058,.00010254,53.1589,197.7560,90.8390,280.2517,0,U,69253,999,570,-.86098941E-2,-.1242408E-1,0
STARLINK-37517,2026-117S,2026-06-25T13:13:25.328640,15.80334140,.00017454,53.1561,201.2378,205.3788,154.7149,0,U,69254,999,430,-.17761189E-2,-.329961E-2,0
STARLINK-37378,2026-117T,2026-06-25T20:46:42.560832,15.78901149,.0001397,53.1568,199.6463,210.8925,149.2015,0,U,69255,999,435,-.21297283E-2,-.368798E-2,0
STARLINK-37396,2026-117U,2026-06-26T05:50:47.626656,15.77035398,.00010413,53.1577,197.7326,112.3815,247.7317,0,U,69256,999,441,-.26437286E-2,-.418402E-2,0
STARLINK-37508,2026-117V,2026-06-26T06:00:02.000160,15.77348958,.0000496,53.1587,197.7842,92.6071,263.5439,0,U,69257,999,563,-.18198464E-1,-.2661595E-1,0
STARLINK-37276,2026-117W,2026-06-26T06:00:02.000160,15.52763588,.00017647,53.1593,197.9780,64.8529,193.4085,0,U,69258,999,563,-.39546027E-1,-.2199022E-1,0
STARLINK-37518,2026-117X,2026-06-26T06:00:02.000160,15.52827152,.00016637,53.1595,197.9938,65.9999,185.0319,0,U,69259,999,564,-.36343531E-1,-.2044336E-1,0
STARLINK-37478,2026-117Y,2026-06-26T06:00:02.000160,15.49301930,.00020828,53.1600,198.5379,81.7071,260.6459,0,U,69260,999,564,.18746452E-3,.9988E-4,0
STARLINK-37506,2026-117Z,2026-06-26T06:00:02.000160,15.49265428,.00013781,53.1594,198.1248,85.4976,100.9857,0,U,69261,999,564,.56816921E-3,.31229E-3,0
STARLINK-37503,2026-117AA,2026-06-26T06:00:02.000160,15.56765281,.00009507,53.1598,197.8425,91.1342,233.5233,0,U,69262,999,564,-.40579055E-1,-.2612933E-1,0
STARLINK-37502,2026-117AB,2026-06-26T06:00:02.000160,15.51924676,.00013107,53.1595,198.0194,80.8820,156.6784,0,U,69263,999,564,-.59289805E-1,-.3178327E-1,0
STARLINK-37486,2026-117AC,2026-06-26T06:00:02.000160,15.60359081,.00011305,53.1595,197.8104,79.8460,260.5260,0,U,69264,999,564,-.98580937E-2,-.750549E-2,0
STARLINK-37435,2026-117AD,2026-06-26T05:42:41.783040,15.66084245,.00018387,53.1589,197.6860,144.4283,215.6856,0,U,69265,999,441,-.29645214E-2,-.29929E-2,0
STARLINK-37464,2026-117AE,2026-06-26T06:57:43.608384,15.69450241,.00017308,53.1593,197.2993,70.0568,290.0636,0,U,69266,999,442,-.10010616E-1,-.1075876E-1,0
KUIPER-00282,2026-118A,2026-06-25T22:49:29.343648,15.33953026,.00116786,51.8585,11.3871,218.6394,141.3756,0,U,69267,999,532,.74900464E-3,.24727E-3,0
