STARLINK-37665          
1 69238U 26117A   26177.22034280  .00080006  00000+0  51356-3 0  9995
2 69238  53.1570 198.3240 0007368 142.0725 218.0815 15.75543124  4403
STARLINK-37558          
1 69239U 26117B   26177.28085878  .00324897  00000+0  17403-2 0  9994
2 69239  53.1567 197.9896 0009068 212.4762 147.5703 15.78823459  4412
STARLINK-37680          
1 69240U 26117C   26176.51922619 -.00417075  00000+0 -22294-2 0  9991
2 69240  53.1563 201.7705 0000560 116.3821 243.7259 15.80716632  4297
STARLINK-37742          
1 69241U 26117D   26176.58105682  .00490790  00000+0  23328-2 0  9994
2 69241  53.1563 201.4448 0002857 113.6877 246.4446 15.81047745  4304
STARLINK-37718          
1 69242U 26117E   26176.57957152  .00083319  00000+0  42322-3 0  9992
2 69242  53.1559 201.4323 0000680 280.4127  79.6819 15.80790095  4307
STARLINK-37735          
1 69243U 26117F   26177.28131433 -.00801433  00000+0 -64673-2 0  9997
2 69243  53.1583 197.9909 0001709   1.3706 358.7317 15.72484266  4417
STARLINK-37757          
1 69244U 26117G   26177.25002315 -.02644994  00000+0 -19019-1 0  9993
2 69244  53.1592 198.0901 0001266  89.7489 120.8742 15.76195833  5636
STARLINK-37767          
1 69245U 26117H   26177.25002315 -.01527881  00000+0 -10603-1 0  9998
2 69245  53.1590 198.0334 0000856  83.2625 154.6648 15.76790537  5632
STARLINK-35759          
1 69246U 26117J   26177.25002315 -.02544024  00000+0 -18151-1 0  9994
2 69246  53.1589 198.0015 0001059  95.0592 157.9420 15.76846586  5682
STARLINK-37238          
1 69247U 26117K   26177.25002315 -.02568921  00000+0 -30283-1 0  9997
2 69247  53.1591 198.1483 0001208  72.5109 107.9410 15.64400096  5634
STARLINK-37412          
1 69248U 26117L   26176.37526339  .00272369  00000+0  13416-2 0  9991
2 69248  53.1570 202.2846 0002809  20.2449 339.8684 15.80853152  4278
STARLINK-37398          
1 69249U 26117M   26176.57748746 -.00984551  00000+0 -75788-2 0  9997
2 69249  53.1576 201.4173 0000908  25.7870 334.3194 15.73684807  4306
STARLINK-37499          
1 69250U 26117N   26177.25002315 -.01394577  00000+0 -12684-1 0  9999
2 69250  53.1592 197.9909 0000906  75.2306 182.0775 15.70281433  5707
STARLINK-37489          
1 69251U 26117P   26177.25002315 -.02584964  00000+0 -25517-1 0  9991
2 69251  53.1593 198.0140 0001180  90.1999 156.2445 15.68764343  5707
STARLINK-37434          
1 69252U 26117Q   26177.25002315 -.02490013  00000+0 -38856-1 0  9993
2 69252  53.1593 198.2568 0001174  64.0800  62.5662 15.57071334  5640
STARLINK-37368          
1 69253U 26117R   26177.25002315 -.01242408  00000+0 -86099-2 0  9999
2 69253  53.1589 197.7560 0001025  90.8390 280.2517 15.76684058  5707
STARLINK-37517          
1 69254U 26117S   26176.55098760 -.00329961  00000+0 -17761-2 0  9990
2 69254  53.1561 201.2378 0001745 205.3788 154.7149 15.80334140  4309
STARLINK-37378          
1 69255U 26117T   26176.86577038 -.00368798  00000+0 -21297-2 0  9995
2 69255  53.1568 199.6463 0001397 210.8925 149.2015 15.78901149  4351
STARLINK-37396          
1 69256U 26117U   26177.24360679 -.00418402  00000+0 -26437-2 0  9999
2 69256  53.1577 197.7326 0001041 112.3815 247.7317 15.77035398  4418
STARLINK-37508          
1 69257U 26117V   26177.25002315 -.02661595  00000+0 -18198-1 0  9990
2 69257  53.1587 197.7842 0000496  92.6071 263.5439 15.77348958  5635
STARLINK-37276          
1 69258U 26117W   26177.25002315 -.02199022  00000+0 -39546-1 0  9992
2 69258  53.1593 197.9780 0001764  64.8529 193.4085 15.52763588  5635
STARLINK-37518          
1 69259U 26117X   26177.25002315 -.02044336  00000+0 -36344-1 0  9993
2 69259  53.1595 197.9938 0001663  65.9999 185.0319 15.52827152  5640
STARLINK-37478          
1 69260U 26117Y   26177.25002315  .00009988  00000+0  18746-3 0  9993
2 69260  53.1600 198.5379 0002082  81.7071 260.6459 15.49301930  5640
STARLINK-37506          
1 69261U 26117Z   26177.25002315  .00031229  00000+0  56817-3 0  9998
2 69261  53.1594 198.1248 0001378  85.4976 100.9857 15.49265428  5645
STARLINK-37503          
1 69262U 26117AA  26177.25002315 -.02612933  00000+0 -40579-1 0  9996
2 69262  53.1598 197.8425 0000950  91.1342 233.5233 15.56765281  5640
STARLINK-37502          
1 69263U 26117AB  26177.25002315 -.03178327  00000+0 -59290-1 0  9992
2 69263  53.1595 198.0194 0001310  80.8820 156.6784 15.51924676  5647
STARLINK-37486          
1 69264U 26117AC  26177.25002315 -.00750549  00000+0 -98581-2 0  9999
2 69264  53.1595 197.8104 0001130  79.8460 260.5260 15.60359081  5640
STARLINK-37435          
1 69265U 26117AD  26177.23798360 -.00299290  00000+0 -29645-2 0  9996
2 69265  53.1589 197.6860 0001838 144.4283 215.6856 15.66084245  4417
STARLINK-37464          
1 69266U 26117AE  26177.29008806 -.01075876  00000+0 -10011-1 0  9991
2 69266  53.1593 197.2993 0001730  70.0568 290.0636 15.69450241  4427
KUIPER-00282            
1 69267U 26118A   26176.95103407  .00024727  00000+0  74900-3 0  9993
2 69267  51.8585  11.3871 0011678 218.6394 141.3756 15.33953026  5325
